OBJECT_NAME,OBJECT_ID,EPOCH,MEAN_MOTION,ECCENTRICITY,INCLINATION,RA_OF_ASC_NODE,ARG_OF_PERICENTER,MEAN_ANOMALY,EPHEMERIS_TYPE,CLASSIFICATION_TYPE,NORAD_CAT_ID,ELEMENT_SET_NO,REV_AT_EPOCH,BSTAR,MEAN_MOTION_DOT,MEAN_MOTION_DDOT
STARLINK-36529,2026-008N,2026-06-13T21:31:39.267264,15.27593191,.0000193,43.0061,22.0948,191.7514,168.3333,0,U,67457,999,2428,.95231E-3,.26046E-3,0
STARLINK-36528,2026-008P,2026-06-15T06:00:02.000160,15.27603938,.00014454,43.0033,13.8625,267.9718,222.1034,0,U,67458,999,581,-.10037644E-2,-.27801E-3,0
STARLINK-36546,2026-008Q,2026-06-14T21:24:21.220128,15.27590700,.00009081,43.0065,16.6579,279.9306,80.1444,0,U,67459,999,2443,.51221844E-3,.13864E-3,0
STARLINK-36523,2026-008R,2026-06-14T21:15:05.586912,15.27605441,.00007363,43.0169,16.6105,268.2445,91.8323,0,U,67460,999,2443,.96484451E-3,.26403E-3,0
STARLINK-36522,2026-008S,2026-06-14T20:43:39.029952,15.27590861,.00046352,43.0015,16.4469,278.9423,81.0904,0,U,67461,999,2443,.7012499E-3,.19095E-3,0
STARLINK-36504,2026-008T,2026-06-14T20:38:05.722080,15.27590476,.00028296,43.0000,16.4069,271.5988,88.4539,0,U,67462,999,2443,.73133388E-3,.19925E-3,0
STARLINK-36505,2026-008U,2026-06-14T20:32:32.649216,15.27593120,.00007216,43.0013,16.3787,226.1987,133.8805,0,U,67463,999,2443,.85670784E-3,.23397E-3,0
STARLINK-36421,2026-008V,2026-06-14T07:33:23.435712,15.27587376,.00017184,43.0057,19.2056,277.7192,82.3465,0,U,67464,999,2435,.86041273E-3,.23495E-3,0
STARLINK-36437,2026-008W,2026-06-14T07:44:28.538592,15.27608048,.00038401,43.0106,19.2563,273.4302,86.6110,0,U,67465,999,2435,.67693071E-3,.1843E-3,0
STARLINK-36520,2026-008X,2026-06-14T21:20:39.128064,15.27591654,.00007739,43.0035,16.6363,283.9111,76.1655,0,U,67466,999,2443,.52003746E-3,.14081E-3,0
STARLINK-36425,2026-008Y,2026-06-14T21:11:24.111744,15.27593928,.00012394,43.0015,16.5984,273.8289,86.2421,0,U,67467,999,2443,.72249531E-3,.19681E-3,0
STARLINK-36414,2026-008Z,2026-06-14T07:38:55.739616,15.27607737,.00026797,43.0069,19.2185,268.3834,91.6711,0,U,67468,999,2435,.61922757E-3,.16831E-3,0
STARLINK-36441,2026-008AA,2026-06-14T21:16:56.893440,15.27594983,.00007259,43.0050,16.6100,265.1143,94.9626,0,U,67469,999,2443,.67287951E-3,.18308E-3,0
STARLINK-36454,2026-008AB,2026-06-14T20:23:17.417760,15.27589393,.00013271,42.9994,16.3206,249.2443,110.8266,0,U,67470,999,2443,.78487835E-3,.21405E-3,0
STARLINK-36334,2026-008AC,2026-06-14T21:26:12.033312,15.27596077,.00006446,43.0068,16.6536,282.0836,77.9943,0,U,67471,999,2443,.74520655E-3,.20311E-3,0
STARLINK-36269,2026-008AD,2026-06-14T21:05:52.819584,15.27553261,.00021181,43.0010,16.5496,123.4173,236.6881,0,U,67472,999,2443,.66838221E-3,.18161E-3,0
STARLINK-36408,2026-008AE,2026-06-14T20:54:44.428320,15.27633683,.00055839,43.0207,16.4999,103.3614,256.7861,0,U,67473,999,2443,.67749267E-3,.18463E-3,0
ALSAT-3A,2026-009A,2026-06-15T03:46:53.698080,15.23502105,.00148762,97.4551,240.0436,119.2468,241.0258,0,U,67474,999,2296,.22537562E-3,.5323E-4,0
TIANQI-37,2026-010A,2026-06-14T02:32:17.920608,13.99162778,.00129702,44.9819,95.4474,311.9113,48.0613,0,U,67476,999,2096,.61937824E-4,-.38E-6,0
TIANQI-38,2026-010B,2026-06-15T02:06:36.477216,13.99158493,.00115572,44.9782,90.8507,322.6217,37.3810,0,U,67477,999,2110,.72760317E-4,-.22E-6,0
TIANQI-39,2026-010C,2026-06-13T12:59:55.465152,14.03665883,.00156201,44.9799,94.3237,321.2511,38.7202,0,U,67478,999,2093,.79241904E-4,-.5E-7,0
TIANQI-40,2026-010D,2026-06-15T01:15:12.378240,13.99146004,.00114563,44.9822,91.4347,328.4555,31.5590,0,U,67479,999,2109,.48021033E-4,-.59E-6,0
SZ-20 MODULE,2025-082C,2026-06-15T04:04:04.407744,15.68976802,.00124735,41.4775,328.7300,333.4663,26.5540,0,U,67481,999,29291,.18731987E-3,.22035E-3,0
2025-313BE,2025-313BE,2026-06-15T04:15:45.497952,15.50023234,.00043523,97.3880,243.6610,294.7331,65.3468,0,U,67482,999,2296,.22683403E-2,.129071E-2,0
ION SCV-021,2025-276DT,2026-06-15T04:10:42.127680,14.97544982,.00122388,97.5250,236.7006,124.0229,236.2158,0,U,67483,999,2230,.48021567E-4,.505E-5,0
STARLINK-36551,2026-012A,2026-06-15T03:43:34.356000,15.27591562,.00031199,42.9916,124.3393,269.6869,90.3625,0,U,67493,999,2266,.6056924E-3,.1645E-3,0
STARLINK-36396,2026-012B,2026-06-14T14:42:35.044704,15.27571607,.0000483,43.0015,127.1759,98.6293,261.4613,0,U,67494,999,2258,.56674E-3,.15362E-3,0
STARLINK-36550,2026-012C,2026-06-15T03:32:28.250016,15.27595677,.00014724,43.0006,124.2919,257.9184,102.1502,0,U,67495,999,2266,.85963029E-3,.2348E-3,0
STARLINK-36534,2026-012D,2026-06-14T14:49:56.981568,15.27615867,.000148,43.0022,127.1940,269.3277,90.7405,0,U,67496,999,2258,.35644E-3,.957E-4,0
STARLINK-36555,2026-012E,2026-06-14T14:53:42.516672,15.27561074,.000052,42.9996,127.2132,50.1847,309.9051,0,U,67497,999,2258,.60434E-3,.16396E-3,0
