STARLINK-36529          
1 67457U 26008N   26164.89698226  .00026046  00000+0  95231-3 0  9994
2 67457  43.0061  22.0948 0000193 191.7514 168.3333 15.27593191 24287
STARLINK-36528          
1 67458U 26008P   26166.25002315 -.00027801  00000+0 -10038-2 0  9998
2 67458  43.0033  13.8625 0001445 267.9718 222.1034 15.27603938  5816
STARLINK-36546          
1 67459U 26008Q   26165.89191227  .00013864  00000+0  51222-3 0  9992
2 67459  43.0065  16.6579 0000908 279.9306  80.1444 15.27590700 24438
STARLINK-36523          
1 67460U 26008R   26165.88548133  .00026403  00000+0  96484-3 0  9997
2 67460  43.0169  16.6105 0000736 268.2445  91.8323 15.27605441 24438
STARLINK-36522          
1 67461U 26008S   26165.86364618  .00019095  00000+0  70125-3 0  9993
2 67461  43.0015  16.4469 0004635 278.9423  81.0904 15.27590861 24431
STARLINK-36504          
1 67462U 26008T   26165.85978845  .00019925  00000+0  73133-3 0  9990
2 67462  43.0000  16.4069 0002829 271.5988  88.4539 15.27590476 24437
STARLINK-36505          
1 67463U 26008U   26165.85593344  .00023397  00000+0  85671-3 0  9996
2 67463  43.0013  16.3787 0000721 226.1987 133.8805 15.27593120 24432
STARLINK-36421          
1 67464U 26008V   26165.31485458  .00023495  00000+0  86041-3 0  9995
2 67464  43.0057  19.2056 0001718 277.7192  82.3465 15.27587376 24356
STARLINK-36437          
1 67465U 26008W   26165.32255253  .00018430  00000+0  67693-3 0  9990
2 67465  43.0106  19.2563 0003840 273.4302  86.6110 15.27608048 24353
STARLINK-36520          
1 67466U 26008X   26165.88934176  .00014081  00000+0  52004-3 0  9998
2 67466  43.0035  16.6363 0000773 283.9111  76.1655 15.27591654 24431
STARLINK-36425          
1 67467U 26008Y   26165.88291796  .00019681  00000+0  72250-3 0  9999
2 67467  43.0015  16.5984 0001239 273.8289  86.2421 15.27593928 24439
STARLINK-36414          
1 67468U 26008Z   26165.31870069  .00016831  00000+0  61923-3 0  9993
2 67468  43.0069  19.2185 0002679 268.3834  91.6711 15.27607737 24353
STARLINK-36441          
1 67469U 26008AA  26165.88676960  .00018308  00000+0  67288-3 0  9991
2 67469  43.0050  16.6100 0000725 265.1143  94.9626 15.27594983 24438
STARLINK-36454          
1 67470U 26008AB  26165.84950715  .00021405  00000+0  78488-3 0  9998
2 67470  42.9994  16.3206 0001327 249.2443 110.8266 15.27589393 24431
STARLINK-36334          
1 67471U 26008AC  26165.89319483  .00020311  00000+0  74521-3 0  9994
2 67471  43.0068  16.6536 0000644 282.0836  77.9943 15.27596077 24439
STARLINK-36269          
1 67472U 26008AD  26165.87908356  .00018161  00000+0  66838-3 0  9998
2 67472  43.0010  16.5496 0002118 123.4173 236.6881 15.27553261 24434
STARLINK-36408          
1 67473U 26008AE  26165.87134755  .00018463  00000+0  67749-3 0  9990
2 67473  43.0207  16.4999 0005583 103.3614 256.7861 15.27633683 24434
ALSAT-3A                
1 67474U 26009A   26166.15756595  .00005323  00000+0  22538-3 0  9994
2 67474  97.4551 240.0436 0014876 119.2468 241.0258 15.23502105 22962
TIANQI-37               
1 67476U 26010A   26165.10576297 -.00000038  00000+0  61938-4 0  9998
2 67476  44.9819  95.4474 0012970 311.9113  48.0613 13.99162778 20960
TIANQI-38               
1 67477U 26010B   26166.08792219 -.00000022  00000+0  72760-4 0  9999
2 67477  44.9782  90.8507 0011557 322.6217  37.3810 13.99158493 21106
TIANQI-39               
1 67478U 26010C   26164.54161418 -.00000005  00000+0  79242-4 0  9993
2 67478  44.9799  94.3237 0015620 321.2511  38.7202 14.03665883 20933
TIANQI-40               
1 67479U 26010D   26166.05222660 -.00000059  00000+0  48021-4 0  9999
2 67479  44.9822  91.4347 0011456 328.4555  31.5590 13.99146004 21093
SZ-20 MODULE            
1 67481U 25082C   26166.16949546  .00022035  00000+0  18732-3 0  9993
2 67481  41.4775 328.7300 0012473 333.4663  26.5540 15.68976802292911
2025-313BE              
1 67482U 25313BE  26166.17760993  .00129071  00000+0  22683-2 0  9996
2 67482  97.3880 243.6610 0004352 294.7331  65.3468 15.50023234 22965
ION SCV-021             
1 67483U 25276DT  26166.17409870  .00000505  00000+0  48022-4 0  9996
2 67483  97.5250 236.7006 0012238 124.0229 236.2158 14.97544982 22305
STARLINK-36551          
1 67493U 26012A   26166.15525875  .00016450  00000+0  60569-3 0  9993
2 67493  42.9916 124.3393 0003119 269.6869  90.3625 15.27591562 22661
STARLINK-36396          
1 67494U 26012B   26165.61290561  .00015362  00000+0  56674-3 0  9998
2 67494  43.0015 127.1759 0000483  98.6293 261.4613 15.27571607 22580
STARLINK-36550          
1 67495U 26012C   26166.14754919  .00023480  00000+0  85963-3 0  9993
2 67495  43.0006 124.2919 0001472 257.9184 102.1502 15.27595677 22665
STARLINK-36534          
1 67496U 26012D   26165.61802062  .00009570  00000+0  35644-3 0  9993
2 67496  43.0022 127.1940 0001480 269.3277  90.7405 15.27615867 22588
STARLINK-36555          
1 67497U 26012E   26165.62063098  .00016396  00000+0  60434-3 0  9992
2 67497  42.9996 127.2132 0000520  50.1847 309.9051 15.27561074 22586
